GLOBALSTAR M094         
1 39074U 13005C   24260.51673970 -.00000058  00000+0  25349-3 0  9993
2 39074  51.9957 295.3658 0000518  69.0092 291.0830 12.62268308537836
GLOBALSTAR M096         
1 39075U 13005D   24260.60914708 -.00000070  00000+0  18681-3 0  9996
2 39075  52.0100 343.3844 0000642  71.8216 288.2721 12.62270075536747
GLOBALSTAR M078         
1 39076U 13005E   24260.42417027 -.00000090  00000+0  75855-4 0  9998
2 39076  51.9871  68.8247 0000416 339.1705  20.9145 12.62274764535344
GLOBALSTAR M095         
1 39077U 13005F   24260.60911667 -.00000095  00000+0  51749-4 0  9999
2 39077  51.9800  65.5951 0000737  41.9792 318.1131 12.62264814535222
GLOBALSTAR M087         
1 52888U 22064A   24260.41971250 -.00000075  00000+0  10188-3 0  9991
2 52888  51.9742 250.2556 0009012 235.1093 124.8961 13.37585717109739
